[{"OBJECT_NAME":"STARLINK-36128","OBJECT_ID":"2025-281AB","EPOCH":"2026-03-09T03:34:17.135616","MEAN_MOTION":15.2760045,"ECCENTRICITY":0.00014467,"INCLINATION":43.0021,"RA_OF_ASC_NODE":346.4516,"ARG_OF_PERICENTER":259.0577,"MEAN_ANOMALY":101.0112,"EPHEMERIS_TYPE":0,"CLASSIFICATION_TYPE":"U","NORAD_CAT_ID":66873,"ELEMENT_SET_NO":999,"REV_AT_EPOCH":1604,"BSTAR":0.001046874,"MEAN_MOTION_DOT":0.00028676,"MEAN_MOTION_DDOT":0},{"OBJECT_NAME":"COSMOS 1862","OBJECT_ID":"1987-055A","EPOCH":"2026-03-09T22:37:02.390592","MEAN_MOTION":15.30492139,"ECCENTRICITY":0.00097484,"INCLINATION":82.4856,"RA_OF_ASC_NODE":47.1862,"ARG_OF_PERICENTER":26.6325,"MEAN_ANOMALY":333.5414,"EPHEMERIS_TYPE":0,"CLASSIFICATION_TYPE":"U","NORAD_CAT_ID":18152,"ELEMENT_SET_NO":999,"REV_AT_EPOCH":8987,"BSTAR":0.00034125048,"MEAN_MOTION_DOT":0.00010107,"MEAN_MOTION_DDOT":0}]
